start=new Date('2023-05-21T00:00:00.000Z').valueOf();
sats=[{"GP_ID":"232207056","MEAN_MOTION":"15.06448778","SITE":"AFETR","FILE":"3913175","ECCENTRICITY":"0.00008870","INCLINATION":"53.0553","DECAY_DATE":null,"CENTER_NAME":"EARTH","RCS_SIZE":"LARGE","ELEMENT_SET_NO":"999","OBJECT_NAME":"STARLINK-2035","PERIAPSIS":"546.450","OBJECT_TYPE":"PAYLOAD","MEAN_MOTION_DOT":"0.00024012","ARG_OF_PERICENTER":"82.1862","COUNTRY_CODE":"US","APOAPSIS":"547.678","NORAD_CAT_ID":"47651","LAUNCH_DATE":"2021-02-16","MEAN_ANOMALY":"277.9228","REV_AT_EPOCH":"12567","SEMIMAJOR_AXIS":"6925.199","REF_FRAME":"TEME","RA_OF_ASC_NODE":"347.8016","TIME_SYSTEM":"UTC","CLASSIFICATION_TYPE":"U","MEAN_ELEMENT_THEORY":"SGP4","TLE_LINE1":"1 47651U 21012AH  23140.86297692  .00024012  00000-0  16233-2 0  9994","BSTAR":"0.00162330000000","MEAN_MOTION_DDOT":"0.0000000000000","PERIOD":"95.589","OBJECT_ID":"2021-012AH","EPHEMERIS_TYPE":"0","TLE_LINE2":"2 47651  53.0553 347.8016 0000887  82.1862 277.9228 15.06448778125673","EPOCH":"2023-05-20T20:42:41.205888"},{"SITE":"AFETR","FILE":"3913175","MEAN_MOTION":"15.06432658","GP_ID":"232207306","DECAY_DATE":null,"RCS_SIZE":"LARGE","CENTER_NAME":"EARTH","INCLINATION":"53.0544","ECCENTRICITY":"0.00011750","ELEMENT_SET_NO":"999","OBJECT_NAME":"STARLINK-2036","PERIAPSIS":"546.300","OBJECT_TYPE":"PAYLOAD","MEAN_MOTION_DOT":"0.00014989","ARG_OF_PERICENTER":"91.2785","LAUNCH_DATE":"2021-02-16","COUNTRY_CODE":"US","NORAD_CAT_ID":"47652","APOAPSIS":"547.927","REF_FRAME":"TEME","MEAN_ANOMALY":"268.8339","SEMIMAJOR_AXIS":"6925.248","REV_AT_EPOCH":"12566","RA_OF_ASC_NODE":"347.9552","TIME_SYSTEM":"UTC","MEAN_ELEMENT_THEORY":"SGP4","CLASSIFICATION_TYPE":"U","MEAN_MOTION_DDOT":"0.0000000000000","TLE_LINE1":"1 47652U 21012AJ  23140.81874817  .00014989  00000-0  10221-2 0  9993","BSTAR":"0.00102210000000","EPHEMERIS_TYPE":"0","PERIOD":"95.590","OBJECT_ID":"2021-012AJ","EPOCH":"2023-05-20T19:38:59.841888","TLE_LINE2":"2 47652  53.0544 347.9552 0001175  91.2785 268.8339 15.06432658125667"},{"ARG_OF_PERICENTER":"76.5814","MEAN_MOTION_DOT":"0.00025412","OBJECT_TYPE":"PAYLOAD","PERIAPSIS":"546.366","OBJECT_NAME":"STARLINK-2037","ELEMENT_SET_NO":"999","DECAY_DATE":null,"RCS_SIZE":"LARGE","CENTER_NAME":"EARTH","INCLINATION":"53.0537","ECCENTRICITY":"0.00011130","SITE":"AFETR","FILE":"3913175","MEAN_MOTION":"15.06425127","GP_ID":"232208053","EPOCH":"2023-05-20T19:31:04.525248","TLE_LINE2":"2 47653  53.0537 327.9766 0001113  76.5814 283.5299 15.06425127125938","EPHEMERIS_TYPE":"0","PERIOD":"95.591","OBJECT_ID":"2021-012AK","TLE_LINE1":"1 47653U 21012AK  23140.81324682  .00025412  00000-0  17176-2 0  9993","MEAN_MOTION_DDOT":"0.0000000000000","BSTAR":"0.00171760000000","MEAN_ELEMENT_THEORY":"SGP4","CLASSIFICATION_TYPE":"U","RA_OF_ASC_NODE":"327.9766","TIME_SYSTEM":"UTC","REF_FRAME":"TEME","MEAN_ANOMALY":"283.5299","SEMIMAJOR_AXIS":"6925.272","REV_AT_EPOCH":"12593","LAUNCH_DATE":"2021-02-16","COUNTRY_CODE":"US","APOAPSIS":"547.907","NORAD_CAT_ID":"47653"},{"MEAN_MOTION_DOT":"0.00024509","ARG_OF_PERICENTER":"92.5833","OBJECT_TYPE":"PAYLOAD","PERIAPSIS":"546.280","ELEMENT_SET_NO":"999","OBJECT_NAME":"STARLINK-2038","SITE":"AFETR","FILE":"3913175","GP_ID":"232208302","MEAN_MOTION":"15.06441964","DECAY_DATE":null,"CENTER_NAME":"EARTH","RCS_SIZE":"LARGE","INCLINATION":"53.0547","ECCENTRICITY":"0.00011620","EPHEMERIS_TYPE":"0","OBJECT_ID":"2021-012AL","PERIOD":"95.589","EPOCH":"2023-05-20T19:44:18.123072","TLE_LINE2":"2 47654  53.0547 347.9347 0001162  92.5833 267.5289 15.06441964125668","MEAN_ELEMENT_THEORY":"SGP4","CLASSIFICATION_TYPE":"U","BSTAR":"0.00165670000000","TLE_LINE1":"1 47654U 21012AL  23140.82243198  .00024509  00000-0  16567-2 0  9996","MEAN_MOTION_DDOT":"0.0000000000000","REF_FRAME":"TEME","MEAN_ANOMALY":"267.5289","REV_AT_EPOCH":"12566","SEMIMAJOR_AXIS":"6925.220","RA_OF_ASC_NODE":"347.9347","TIME_SYSTEM":"UTC","LAUNCH_DATE":"2021-02-16","COUNTRY_CODE":"US","NORAD_CAT_ID":"47654","APOAPSIS":"547.890"},{"REF_FRAME":"TEME","SEMIMAJOR_AXIS":"6925.215","REV_AT_EPOCH":"12566","MEAN_ANOMALY":"267.6349","TIME_SYSTEM":"UTC","RA_OF_ASC_NODE":"347.9689","LAUNCH_DATE":"2021-02-16","APOAPSIS":"547.576","NORAD_CAT_ID":"47655","COUNTRY_CODE":"US","EPHEMERIS_TYPE":"0","OBJECT_ID":"2021-012AM","PERIOD":"95.589","EPOCH":"2023-05-20T19:33:40.851360","TLE_LINE2":"2 47655  53.0544 347.9689 0000715  92.4722 267.6349 15.06443428125669","MEAN_ELEMENT_THEORY":"SGP4","CLASSIFICATION_TYPE":"U","TLE_LINE1":"1 47655U 21012AM  23140.81505615  .00025486  00000-0  17217-2 0  9999","MEAN_MOTION_DDOT":"0.0000000000000","BSTAR":"0.00172170000000","ELEMENT_SET_NO":"999","OBJECT_NAME":"STARLINK-2039","FILE":"3913175","SITE":"AFETR","GP_ID":"232207556","MEAN_MOTION":"15.06443428","CENTER_NAME":"EARTH","RCS_SIZE":"LARGE","DECAY_DATE":null,"ECCENTRICITY":"0.00007150","INCLINATION":"53.0544","MEAN_MOTION_DOT":"0.00025486","ARG_OF_PERICENTER":"92.4722","PERIAPSIS":"546.585","OBJECT_TYPE":"PAYLOAD"},{"APOAPSIS":"547.798","NORAD_CAT_ID":"47656","COUNTRY_CODE":"US","LAUNCH_DATE":"2021-02-16","TIME_SYSTEM":"UTC","RA_OF_ASC_NODE":"327.8944","REV_AT_EPOCH":"12594","SEMIMAJOR_AXIS":"6925.217","MEAN_ANOMALY":"273.0205","REF_FRAME":"TEME","TLE_LINE1":"1 47656U 21012AN  23140.83164758  .00023180  00000-0  15681-2 0  9993","BSTAR":"0.00156810000000","MEAN_MOTION_DDOT":"0.0000000000000","CLASSIFICATION_TYPE":"U","MEAN_ELEMENT_THEORY":"SGP4","TLE_LINE2":"2 47656  53.0536 327.8944 0001034  87.0902 273.0205 15.06443047125947","EPOCH":"2023-05-20T19:57:34.350912","OBJECT_ID":"2021-012AN","PERIOD":"95.589","EPHEMERIS_TYPE":"0","ECCENTRICITY":"0.00010340","INCLINATION":"53.0536","CENTER_NAME":"EARTH","RCS_SIZE":"LARGE","DECAY_DATE":null,"MEAN_MOTION":"15.06443047","GP_ID":"232207806","FILE":"3913175","SITE":"AFETR","OBJECT_NAME":"STARLINK-2040","ELEMENT_SET_NO":"999","OBJECT_TYPE":"PAYLOAD","PERIAPSIS":"546.366","ARG_OF_PERICENTER":"87.0902","MEAN_MOTION_DOT":"0.00023180"},{"COUNTRY_CODE":"US","NORAD_CAT_ID":"47657","APOAPSIS":"547.584","LAUNCH_DATE":"2021-02-16","MEAN_ANOMALY":"271.3207","SEMIMAJOR_AXIS":"6925.219","REV_AT_EPOCH":"12566","REF_FRAME":"TEME","RA_OF_ASC_NODE":"347.8697","TIME_SYSTEM":"UTC","CLASSIFICATION_TYPE":"U","MEAN_ELEMENT_THEORY":"SGP4","BSTAR":"0.00157900000000","TLE_LINE1":"1 47657U 21012AP  23140.83717321  .00023343  00000-0  15790-2 0  9996","MEAN_MOTION_DDOT":"0.0000000000000","OBJECT_ID":"2021-012AP","PERIOD":"95.589","EPHEMERIS_TYPE":"0","TLE_LINE2":"2 47657  53.0534 347.8697 0000722  88.7864 271.3207 15.06442340125668","EPOCH":"2023-05-20T20:05:31.765344","GP_ID":"232208553","MEAN_MOTION":"15.06442340","SITE":"AFETR","FILE":"3913175","ECCENTRICITY":"0.00007220","INCLINATION":"53.0534","DECAY_DATE":null,"CENTER_NAME":"EARTH","RCS_SIZE":"LARGE","ELEMENT_SET_NO":"999","OBJECT_NAME":"STARLINK-2041","PERIAPSIS":"546.584","OBJECT_TYPE":"PAYLOAD","MEAN_MOTION_DOT":"0.00023343","ARG_OF_PERICENTER":"88.7864"},{"ARG_OF_PERICENTER":"86.9023","MEAN_MOTION_DOT":"0.00021915","OBJECT_TYPE":"PAYLOAD","PERIAPSIS":"546.319","OBJECT_NAME":"STARLINK-2042","ELEMENT_SET_NO":"999","CENTER_NAME":"EARTH","RCS_SIZE":"LARGE","DECAY_DATE":null,"INCLINATION":"53.0539","ECCENTRICITY":"0.00011340","FILE":"3913175","SITE":"AFETR","GP_ID":"232208802","MEAN_MOTION":"15.06435685","EPOCH":"2023-05-20T19:54:55.201248","TLE_LINE2":"2 47658  53.0539 347.9012 0001134  86.9023 273.2095 15.06435685125683","EPHEMERIS_TYPE":"0","OBJECT_ID":"2021-012AQ","PERIOD":"95.590","BSTAR":"0.00148410000000","TLE_LINE1":"1 47658U 21012AQ  23140.82980557  .00021915  00000-0  14841-2 0  9998","MEAN_MOTION_DDOT":"0.0000000000000","MEAN_ELEMENT_THEORY":"SGP4","CLASSIFICATION_TYPE":"U","TIME_SYSTEM":"UTC","RA_OF_ASC_NODE":"347.9012","REF_FRAME":"TEME","SEMIMAJOR_AXIS":"6925.239","REV_AT_EPOCH":"12568","MEAN_ANOMALY":"273.2095","LAUNCH_DATE":"2021-02-16","APOAPSIS":"547.890","NORAD_CAT_ID":"47658","COUNTRY_CODE":"US"},{"MEAN_MOTION_DOT":"0.00012236","ARG_OF_PERICENTER":"86.5798","PERIAPSIS":"546.359","OBJECT_TYPE":"PAYLOAD","ELEMENT_SET_NO":"999","OBJECT_NAME":"STARLINK-2043","FILE":"3913175","SITE":"AFETR","MEAN_MOTION":"15.06416565","GP_ID":"232207057","RCS_SIZE":"LARGE","CENTER_NAME":"EARTH","DECAY_DATE":null,"ECCENTRICITY":"0.00011600","INCLINATION":"53.0538","EPHEMERIS_TYPE":"0","OBJECT_ID":"2021-012AR","PERIOD":"95.591","EPOCH":"2023-05-20T12:34:22.925280","TLE_LINE2":"2 47659  53.0538 229.2791 0001160  86.5798 273.5324 15.06416565127274","MEAN_ELEMENT_THEORY":"SGP4","CLASSIFICATION_TYPE":"U","MEAN_MOTION_DDOT":"0.0000000000000","TLE_LINE1":"1 47659U 21012AR  23140.52387645  .00012236  00000-0  83856-3 0  9994","BSTAR":"0.00083856000000","REF_FRAME":"TEME","SEMIMAJOR_AXIS":"6925.298","REV_AT_EPOCH":"12727","MEAN_ANOMALY":"273.5324","TIME_SYSTEM":"UTC","RA_OF_ASC_NODE":"229.2791","LAUNCH_DATE":"2021-02-16","NORAD_CAT_ID":"47659","APOAPSIS":"547.966","COUNTRY_CODE":"US"},{"COUNTRY_CODE":"US","NORAD_CAT_ID":"47660","APOAPSIS":"547.822","LAUNCH_DATE":"2021-02-16","MEAN_ANOMALY":"278.2425","REV_AT_EPOCH":"12740","SEMIMAJOR_AXIS":"6925.320","REF_FRAME":"TEME","RA_OF_ASC_NODE":"220.1171","TIME_SYSTEM":"UTC","CLASSIFICATION_TYPE":"U","MEAN_ELEMENT_THEORY":"SGP4","BSTAR":"0.00029337000000","TLE_LINE1":"1 47660U 21012AS  23140.47696482  .00004092  00000-0  29337-3 0  9997","MEAN_MOTION_DDOT":"0.0000000000000","OBJECT_ID":"2021-012AS","PERIOD":"95.592","EPHEMERIS_TYPE":"0","TLE_LINE2":"2 47660  53.0539 220.1171 0000920  81.8669 278.2425 15.06409275127406","EPOCH":"2023-05-20T11:26:49.760448","MEAN_MOTION":"15.06409275","GP_ID":"232207307","SITE":"AFETR","FILE":"3913175","ECCENTRICITY":"0.00009200","INCLINATION":"53.0539","DECAY_DATE":null,"CENTER_NAME":"EARTH","RCS_SIZE":"LARGE","ELEMENT_SET_NO":"999","OBJECT_NAME":"STARLINK-2044","OBJECT_TYPE":"PAYLOAD","PERIAPSIS":"546.548","MEAN_MOTION_DOT":"0.00004092","ARG_OF_PERICENTER":"81.8669"}];
